H1 CPF 01  gfz 2022 10 26 12  7992 tandemx   
H2 1003001  6202 36605    2022 10 26 12 59 42 2022 10 31 00 00 42   120 1 1  0 0 0
H9
10 0 59880  39582.000000  0    1061665.082  -5679226.398  -3760448.401
10 0 59880  39702.000000  0     778952.011  -5181161.891  -4480846.973
10 0 59880  39822.000000  0     492243.225  -4588019.729  -5122774.463
10 0 59880  39942.000000  0     208106.593  -3910187.846  -5675085.230
10 0 59880  40062.000000  0     -67141.004  -3159609.147  -6128216.622
10 0 59880  40182.000000  0    -327567.183  -2349564.025  -6474343.316
10 0 59880  40302.000000  0    -567745.718  -1494432.144  -6707500.863
10 0 59880  40422.000000  0    -782864.323   -609438.139  -6823678.245
10 0 59880  40542.000000  0    -968816.742    289616.025  -6820879.633
10 0 59880  40662.000000  0   -1122278.400   1186626.746  -6699153.608
10 0 59880  40782.000000  0   -1240764.432   2065469.617  -6460592.335
10 0 59880  40902.000000  0   -1322669.120   2910281.696  -6109299.677
10 0 59880  41022.000000  0   -1367286.827   3705743.429  -5651329.800
10 0 59880  41142.000000  0   -1374813.667   4437354.949  -5094592.854
10 0 59880  41262.000000  0   -1346329.901   5091702.738  -4448730.373
10 0 59880  41382.000000  0   -1283763.403   5656712.017  -3724958.627
10 0 59880  41502.000000  0   -1189833.960   6121878.038  -2935882.059
10 0 59880  41622.000000  0   -1067979.613   6478471.934  -2095280.431
10 0 59880  41742.000000  0    -922266.373   6719717.223  -1217870.741
10 0 59880  41862.000000  0    -757283.425   6840929.585   -319048.579
10 0 59880  41982.000000  0    -578025.550   6839618.618    585385.944
10 0 59880  42102.000000  0    -389765.951   6715546.520   1479514.342
10 0 59880  42222.000000  0    -197923.057   6470739.013   2347590.685
10 0 59880  42342.000000  0      -7925.101   6109449.188   3174327.020
10 0 59880  42462.000000  0     174924.433   5638078.644   3945168.409
10 0 59880  42582.000000  0     345577.280   5065059.331   4646554.568
10 0 59880  42702.000000  0     499363.764   4400690.293   5266164.604
10 0 59880  42822.000000  0     632105.651   3656939.953   5793128.043
10 0 59880  42942.000000  0     740216.701   2847223.935   6218212.466
10 0 59880  43062.000000  0     820787.230   1986155.064   6533980.266
10 0 59880  43182.000000  0     871652.258   1089274.736   6734912.807
10 0 59880  43302.000000  0     891442.055    172769.409   6817500.791
10 0 59880  43422.000000  0     879614.137   -746820.664   6780301.438
10 0 59880  43542.000000  0     836465.953  -1652899.556   6623963.497
10 0 59880  43662.000000  0     763128.104  -2529115.038   6351216.891
10 0 59880  43782.000000  0     661538.220  -3359654.980   5966828.510
10 0 59880  43902.000000  0     534395.442  -4129534.717   5477521.345
10 0 59880  44022.000000  0     385098.036  -4824869.130   4891862.360
10 0 59880  44142.000000  0     217664.533  -5433128.687   4220120.057
10 0 59880  44262.000000  0      36638.586  -5943375.475   3474089.693
10 0 59880  44382.000000  0    -153020.485  -6346470.437   2666887.942
10 0 59880  44502.000000  0    -346058.221  -6635247.055   1812720.809
10 0 59880  44622.000000  0    -537054.093  -6804646.970    926630.902
10 0 59880  44742.000000  0    -720556.092  -6851817.259     24225.830
10 0 59880  44862.000000  0    -891217.419  -6776160.837   -878606.870
10 0 59880  44982.000000  0   -1043930.656  -6579340.195  -1765988.678
10 0 59880  45102.000000  0   -1173956.587  -6265236.416  -2622336.694
10 0 59880  45222.000000  0   -1277045.049  -5839865.119  -3432643.200
10 0 59880  45342.000000  0   -1349544.489  -5311250.338  -4182742.268
10 0 59880  45462.000000  0   -1388497.212  -4689260.116  -4859556.617
10 0 59880  45582.000000  0   -1391718.503  -3985410.324  -5451320.132
10 0 59880  45702.000000  0   -1357858.219  -3212641.901  -5947774.263
10 0 59880  45822.000000  0   -1286443.609  -2385075.985  -6340336.005
10 0 59880  45942.000000  0   -1177902.912  -1517751.751  -6622234.858
10 0 59880  46062.000000  0   -1033569.906   -626353.454  -6788618.103
10 0 59880  46182.000000  0    -855669.564    273069.574  -6836625.378
10 0 59880  46302.000000  0    -647283.842   1164385.499  -6765431.540
10 0 59880  46422.000000  0    -412299.322   2031661.515  -6576259.103
10 0 59880  46542.000000  0    -155337.801   2859441.142  -6272360.004
10 0 59880  46662.000000  0     118330.896   3633015.300  -5858967.517
10 0 59880  46782.000000  0     402892.782   4338682.419  -5343215.011
10 0 59880  46902.000000  0     692107.179   4963992.099  -4734023.951
10 0 59880  47022.000000  0     979436.924   5497971.007  -4041961.408
10 0 59880  47142.000000  0    1258189.199   5931324.615  -3279066.268
10 0 59880  47262.000000  0    1521663.668   6256610.025  -2458647.363
10 0 59880  47382.000000  0    1763305.015   6468376.573  -1595055.455
10 0 59880  47502.000000  0    1976856.473   6563269.415   -703431.912
10 0 59880  47622.000000  0    2156510.172   6540091.791    200561.113
10 0 59880  47742.000000  0    2297049.868   6399824.074   1101022.334
10 0 59880  47862.000000  0    2393982.962   6145599.450   1982098.668
10 0 59880  47982.000000  0    2443658.153   5782636.494   2828272.515
10 0 59880  48102.000000  0    2443366.112   5318130.645   3624642.718
10 0 59880  48222.000000  0    2391420.255   4761106.846   4357193.927
10 0 59880  48342.000000  0    2287214.878   4122236.187   5013049.061
10 0 59880  48462.000000  0    2131258.647   3413619.460   5580695.265
10 0 59880  48582.000000  0    1925185.903   2648550.661   6050181.330
10 0 59880  48702.000000  0    1671744.721   1841261.942   6413288.310
10 0 59880  48822.000000  0    1374760.720   1006653.243   6663668.211
10 0 59880  48942.000000  0    1039078.394    160014.257   6796947.695
10 0 59880  49062.000000  0     670481.693   -683254.529   6810799.503
10 0 59880  49182.000000  0     275594.130  -1507921.839   6704982.296
10 0 59880  49302.000000  0    -138240.497  -2299200.863   6481344.443
10 0 59880  49422.000000  0    -563094.647  -3043014.946   6143793.362
10 0 59880  49542.000000  0    -990607.190  -3726249.012   5698229.203
10 0 59880  49662.000000  0   -1412144.829  -4336981.786   5152447.278
10 0 59880  49782.000000  0   -1818975.119  -4864698.930   4516010.464
10 0 59880  49902.000000  0   -2202447.435  -5300483.083   3800088.138
10 0 59880  50022.000000  0   -2554176.939  -5637174.251   3017262.234
10 0 59880  50142.000000  0   -2866226.585  -5869494.598   2181305.203
10 0 59880  50262.000000  0   -3131283.334  -5994137.040   1306935.233
10 0 59880  50382.000000  0   -3342824.592  -6009815.417    409551.852
10 0 59880  50502.000000  0   -3495270.441  -5917274.082   -495042.658
10 0 59880  50622.000000  0   -3584117.822  -5719256.657  -1390930.385
10 0 59880  50742.000000  0   -3606053.015  -5420433.777  -2262367.010
10 0 59880  50862.000000  0   -3559039.639  -5027292.083  -3094066.063
10 0 59880  50982.000000  0   -3442379.662  -4547987.696  -3871471.870
10 0 59880  51102.000000  0   -3256746.232  -3992169.250  -4581014.688
10 0 59880  51222.000000  0   -3004188.936  -3370776.114  -5210344.090
10 0 59880  51342.000000  0   -2688111.923  -2695816.171  -5748537.115
10 0 59880  51462.000000  0   -2313225.892  -1980128.992  -6186278.336
10 0 59880  51582.000000  0   -1885474.532  -1237139.242  -6516010.812
10 0 59880  51702.000000  0   -1411937.282   -480604.809  -6732054.745
10 0 59880  51822.000000  0    -900711.904    275634.647  -6830693.810
10 0 59880  51942.000000  0    -360778.113   1017904.547  -6810231.784
10 0 59880  52062.000000  0     198156.795   1732936.229  -6671018.373
10 0 59880  52182.000000  0     765826.740   2408097.632  -6415444.894
10 0 59880  52302.000000  0    1331591.618   3031612.942  -6047909.480
10 0 59880  52422.000000  0    1884632.463   3592766.551  -5574748.694
10 0 59880  52542.000000  0    2414154.661   4082087.742  -5004138.579
10 0 59880  52662.000000  0    2909596.618   4491514.374  -4345965.242
10 0 59880  52782.000000  0    3360839.992   4814532.874  -3611664.246
10 0 59880  52902.000000  0    3758417.363   5046290.057  -2814030.682
10 0 59880  53022.000000  0    4093713.615   5183674.067  -1967001.348
10 0 59880  53142.000000  0    4359154.083   5225361.298  -1085412.995
10 0 59880  53262.000000  0    4548376.160   5171829.628   -184740.457
10 0 59880  53382.000000  0    4656379.208   5025333.844    719181.070
10 0 59880  53502.000000  0    4679646.910   4789844.631   1610441.490
10 0 59880  53622.000000  0    4616241.609   4470955.192   2473343.040
10 0 59880  53742.000000  0    4465867.964   4075754.295   3292686.934
10 0 59880  53862.000000  0    4229900.244   3612668.749   4054049.035
10 0 59880  53982.000000  0    3911375.939   3091280.782   4744037.680
10 0 59880  54102.000000  0    3514957.548   2522126.559   5350531.457
10 0 59880  54222.000000  0    3046858.465   1916477.703   5862891.932
10 0 59880  54342.000000  0    2514740.159   1286114.548   6272144.708
10 0 59880  54462.000000  0    1927582.492    643093.677   6571130.734
10 0 59880  54582.000000  0    1295528.669      -483.059   6754624.746
10 0 59880  54702.000000  0     629707.860   -632695.048   6819422.682
10 0 59880  54822.000000  0     -57961.871  -1242024.255   6764394.587
10 0 59880  54942.000000  0    -754987.171  -1817564.756   6590502.455
10 0 59880  55062.000000  0   -1448526.091  -2349218.048   6300783.325
10 0 59880  55182.000000  0   -2125622.595  -2827869.875   5900298.329
10 0 59880  55302.000000  0   -2773447.106  -3245547.919   5396051.655
10 0 59880  55422.000000  0   -3379542.798  -3595559.098   4796875.812
10 0 59880  55542.000000  0   -3932070.087  -3872600.670   4113281.040
10 0 59880  55662.000000  0   -4420041.944  -4072843.668   3357274.068
10 0 59880  55782.000000  0   -4833546.830  -4193987.558   2542149.397
10 0 59880  55902.000000  0   -5163955.550  -4235285.233   1682255.107
10 0 59880  56022.000000  0   -5404105.412  -4197535.754    792735.464
99
